[
    {
        "name": "ONEWEB-0057",
        "id": 45160,
        "line1": "1 45160U 20008AF  20273.41667824  .00000015  00000-0  00000+0 0  9993",
        "line2": "2 45160  87.8290  91.5933 0018982 190.1338 300.5128 13.65707164 35428",
        "epoch": "2020-09-29T10:00:01Z"
    },
    {
        "name": "ONEWEB-0058",
        "id": 45161,
        "line1": "1 45161U 20008AG  20273.41667824  .00000015  00000-0  00000+0 0  9994",
        "line2": "2 45161  87.8402  91.5926 0020000 183.6642  55.0934 13.72611762 35743",
        "epoch": "2020-09-29T10:00:01Z"
    },
    {
        "name": "ONEWEB-0059",
        "id": 45162,
        "line1": "1 45162U 20008AH  20273.41667824  .00000015  00000-0  00000+0 0  9995",
        "line2": "2 45162  87.8570  91.4364 0021796 180.6423 309.8011 13.64685888 35671",
        "epoch": "2020-09-29T10:00:01Z"
    },
    {
        "name": "ONEWEB-0062",
        "id": 45163,
        "line1": "1 45163U 20008AJ  20273.41667824  .00000015  00000-0  00000+0 0  9996",
        "line2": "2 45163  87.8487  91.6081 0017458 192.0173  98.7662 13.60447910 35445",
        "epoch": "2020-09-29T10:00:01Z"
    },
    {
        "name": "ONEWEB-0065",
        "id": 45164,
        "line1": "1 45164U 20008AK  20273.41667824  .00000015  00000-0  00000+0 0  9997",
        "line2": "2 45164  87.7988  91.5428 0021410 208.4491 187.0211 13.68708178 35236",
        "epoch": "2020-09-29T10:00:01Z"
    },
    {
        "name": "ONEWEB-0066",
        "id": 45424,
        "line1": "1 45424U 20020A   20272.91667824 -.01384658  00000-0 -35375+0 0  9998",
        "line2": "2 45424  87.6485  78.1078 0022757 320.7803  20.8279 14.54107333  1758",
        "epoch": "2020-09-28T22:00:01Z"
    },
    {
        "name": "ONEWEB-0067",
        "id": 45425,
        "line1": "1 45425U 20020B   20272.91667824 -.01365463  00000-0 -38323+0 0  9998",
        "line2": "2 45425  87.6575  78.1091 0023706 320.5092 297.2917 14.49638084  1808",
        "epoch": "2020-09-28T22:00:01Z"
    },
    {
        "name": "ONEWEB-0080",
        "id": 45426,
        "line1": "1 45426U 20020C   20273.33335648 -.01347872  00000-0 -34738+0 0  9992",
        "line2": "2 45426  87.6566  78.0868 0026323 318.9857  28.4827 14.53534601 28716",
        "epoch": "2020-09-29T08:00:02Z"
    },
    {
        "name": "ONEWEB-0090",
        "id": 45427,
        "line1": "1 45427U 20020D   20273.16667824 -.01461459  00000-0 -41764+0 0  9993",
        "line2": "2 45427  87.6528  77.9832 0025581 323.2370 278.5562 14.48415719 28679",
        "epoch": "2020-09-29T04:00:01Z"
    },
    {
        "name": "ONEWEB-0061",
        "id": 45428,
        "line1": "1 45428U 20020E   20273.16667824 -.01415810  00000-0 -51318+0 0  9990",
        "line2": "2 45428  87.6564  77.8716 0027186 326.8467 348.5546 14.36632902 28637",
        "epoch": "2020-09-29T04:00:01Z"
    },
    {
        "name": "ONEWEB-0081",
        "id": 45429,
        "line1": "1 45429U 20020F   20273.33335648 -.01352796  00000-0 -38895+0 0  9994",
        "line2": "2 45429  87.6609  78.0251 0026531 327.6129 282.1953 14.48407800 28705",
        "epoch": "2020-09-29T08:00:02Z"
    },
    {
        "name": "ONEWEB-0069",
        "id": 45430,
        "line1": "1 45430U 20020G   20273.16667824 -.01427893  00000-0 -36089+0 0  9995",
        "line2": "2 45430  87.6493  78.0459 0027531 330.8390 118.1362 14.54625272 28686",
        "epoch": "2020-09-29T04:00:01Z"
    },
    {
        "name": "ONEWEB-0031",
        "id": 45431,
        "line1": "1 45431U 20020H   20273.33335648 -.01301462  00000-0 -37759+0 0  9999",
        "line2": "2 45431  87.6575  77.9561 0023951 331.5454 147.4344 14.47888554 28693",
        "epoch": "2020-09-29T08:00:02Z"
    },
    {
        "name": "ONEWEB-0027",
        "id": 45432,
        "line1": "1 45432U 20020J   20273.33335648  .00064867  00000-0  66570-2 0  9998",
        "line2": "2 45432  87.5591  77.7948 0025333 330.5940  21.6518 14.89861393 28710",
        "epoch": "2020-09-29T08:00:02Z"
    },
    {
        "name": "ONEWEB-0064",
        "id": 45433,
        "line1": "1 45433U 20020K   20272.91667824 -.01376870  00000-0 -34353+0 0  9990",
        "line2": "2 45433  87.6462  78.1067 0024340 334.7882 228.9036 14.55153959  1751",
        "epoch": "2020-09-28T22:00:01Z"
    },
    {
        "name": "ONEWEB-0018",
        "id": 45434,
        "line1": "1 45434U 20020L   20273.16667824 -.01431945  00000-0 -42076+0 0  9995",
        "line2": "2 45434  87.6600  78.0114 0023043 336.0744 179.1214 14.47069693 28676",
        "epoch": "2020-09-29T04:00:01Z"
    },
    {
        "name": "ONEWEB-0083",
        "id": 45435,
        "line1": "1 45435U 20020M   20273.16667824 -.01419857  00000-0 -36000+0 0  9994",
        "line2": "2 45435  87.6386  77.9461 0022983 334.7437 132.4117 14.54548106 28681",
        "epoch": "2020-09-29T04:00:01Z"
    },
    {
        "name": "ONEWEB-0095",
        "id": 45436,
        "line1": "1 45436U 20020N   20272.91667824 -.01384735  00000-0 -36292+0 0  9996",
        "line2": "2 45436  87.6582  78.1533 0021178 331.1327  21.7575 14.52947362  1760",
        "epoch": "2020-09-28T22:00:01Z"
    },
    {
        "name": "ONEWEB-0092",
        "id": 45437,
        "line1": "1 45437U 20020P   20273.16667824 -.01448020  00000-0 -38581+0 0  9996",
        "line2": "2 45437  87.6596  78.1009 0020475 329.5271 169.8635 14.51778065 28662",
        "epoch": "2020-09-29T04:00:01Z"
    },
    {
        "name": "ONEWEB-0085",
        "id": 45438,
        "line1": "1 45438U 20020Q   20272.91667824 -.01386841  00000-0 -34903+0 0  9995",
        "line2": "2 45438  87.6513  78.1212 0020452 328.7358 321.9364 14.54849572  1802",
        "epoch": "2020-09-28T22:00:01Z"
    },
    {
        "name": "ONEWEB-0096",
        "id": 45439,
        "line1": "1 45439U 20020R   20272.91667824 -.01353652  00000-0 -35483+0 0  9994",
        "line2": "2 45439  87.6584  78.1602 0022290 330.5503 156.5940 14.52837693  1743",
        "epoch": "2020-09-28T22:00:01Z"
    },
    {
        "name": "ONEWEB-0037",
        "id": 45440,
        "line1": "1 45440U 20020S   20272.91667824 -.01375685  00000-0 -29263+0 0  9995",
        "line2": "2 45440  87.6332  78.0996 0022696 327.6081 117.0936 14.62455132  1741",
        "epoch": "2020-09-28T22:00:01Z"
    },
    {
        "name": "ONEWEB-0042",
        "id": 45441,
        "line1": "1 45441U 20020T   20272.91667824 -.01359696  00000-0 -35310+0 0  9990",
        "line2": "2 45441  87.6549  78.1397 0021837 328.1178  86.3546 14.53297319  1765",
        "epoch": "2020-09-28T22:00:01Z"
    },
    {
        "name": "ONEWEB-0098",
        "id": 45442,
        "line1": "1 45442U 20020U   20272.91667824 -.01383317  00000-0 -35642+0 0  9996",
        "line2": "2 45442  87.6570  78.1464 0024084 325.8714  50.9678 14.53684647  1769",
        "epoch": "2020-09-28T22:00:01Z"
    },
    {
        "name": "ONEWEB-0055",
        "id": 45443,
        "line1": "1 45443U 20020V   20273.16667824 -.01451465  00000-0 -39256+0 0  9990",
        "line2": "2 45443  87.6605  78.0724 0025272 327.5134 172.5103 14.50998436 28621",
        "epoch": "2020-09-29T04:00:01Z"
    },
    {
        "name": "ONEWEB-0093",
        "id": 45444,
        "line1": "1 45444U 20020W   20273.16667824 -.01432016  00000-0 -33535+0 0  9996",
        "line2": "2 45444  87.6623  78.1775 0026370 324.2905  60.3257 14.58168269 28657",
        "epoch": "2020-09-29T04:00:01Z"
    },
    {
        "name": "ONEWEB-0029",
        "id": 45445,
        "line1": "1 45445U 20020X   20273.16667824 -.01456791  00000-0 -38174+0 0  9997",
        "line2": "2 45445  87.6637  78.1202 0025815 326.7944  30.4130 14.52481154 28621",
        "epoch": "2020-09-29T04:00:01Z"
    },
    {
        "name": "ONEWEB-0068",
        "id": 45446,
        "line1": "1 45446U 20020Y   20273.16667824 -.01421555  00000-0 -36192+0 0  9996",
        "line2": "2 45446  87.6581  78.1042 0026847 327.9457  33.7220 14.54285026 28628",
        "epoch": "2020-09-29T04:00:01Z"
    },
    {
        "name": "ONEWEB-0046",
        "id": 45447,
        "line1": "1 45447U 20020Z   20273.16667824 -.01446257  00000-0 -37545+0 0  9996",
        "line2": "2 45447  87.6506  78.1039 0025256 332.3380 165.7711 14.52905245 28610",
        "epoch": "2020-09-29T04:00:01Z"
    },
    {
        "name": "ONEWEB-0063",
        "id": 45448,
        "line1": "1 45448U 20020AA  20272.91667824 -.01387484  00000-0 -34651+0 0  9990",
        "line2": "2 45448  87.6579  78.1705 0027213 331.3514 288.5048 14.55079302  1745",
        "epoch": "2020-09-28T22:00:01Z"
    },
    {
        "name": "ONEWEB-0019",
        "id": 45449,
        "line1": "1 45449U 20020AB  20273.16667824 -.01426391  00000-0 -40820+0 0  9995",
        "line2": "2 45449  87.6603  77.9686 0026243 335.2158 329.7665 14.48254685 28561",
        "epoch": "2020-09-29T04:00:01Z"
    },
    {
        "name": "ONEWEB-0094",
        "id": 45450,
        "line1": "1 45450U 20020AC  20273.33335648  .00064515  00000-0  65877-2 0  9997",
        "line2": "2 45450  87.5721  77.8798 0025553 334.4066  17.1760 14.90061065 28657",
        "epoch": "2020-09-29T08:00:02Z"
    },
    {
        "name": "ONEWEB-0087",
        "id": 45451,
        "line1": "1 45451U 20020AD  20273.16667824 -.01463311  00000-0 -38196+0 0  9994",
        "line2": "2 45451  87.6567  78.0731 0025410 337.5692  46.8753 14.52685381 28571",
        "epoch": "2020-09-29T04:00:01Z"
    },
    {
        "name": "ONEWEB-0082",
        "id": 45452,
        "line1": "1 45452U 20020AE  20273.16667824 -.01443176  00000-0 -34174+0 0  9994",
        "line2": "2 45452  87.6641  78.1704 0025681 337.8632 170.7692 14.57703308 28612",
        "epoch": "2020-09-29T04:00:01Z"
    },
    {
        "name": "ONEWEB-0050",
        "id": 45453,
        "line1": "1 45453U 20020AF  20272.91667824  .00044788  00000-0  40858-2 0  9999",
        "line2": "2 45453  87.5368  77.7058 0024949 332.2871 260.2112 14.94656094  1742",
        "epoch": "2020-09-28T22:00:01Z"
    }
]